NORAD_CAT_ID,OBJECT_NAME,OBJECT_TYPE,EPOCH,MEAN_MOTION,ECCENTRICITY,INCLINATION,RA_OF_ASC_NODE,ARG_OF_PERICENTER,MEAN_ANOMALY,BSTAR,MEAN_MOTION_DOT,MEAN_MOTION_DDOT,TLE_LINE0,TLE_LINE1,TLE_LINE2,SEMIMAJOR_AXIS,PERIOD,APOGEE,PERIGEE,DECAYED
53742.0,STARLINK-4637,PAYLOAD,2024-06-06 00:24:46,15.08833588,7.86e-05,53.2196,264.6326,79.5043,280.6038,-0.00018084,-3.164e-05,0.0,0 STARLINK-4637,1 53742U 22107AU  24158.01720743 -.00003164  00000-0 -18084-3 0  9997,2 53742  53.2196 264.6326 0000786  79.5043 280.6038 15.08833588 96941,6917.9,95.438,540.309,539.221,0.0
53742.0,STARLINK-4637,PAYLOAD,2024-06-06 11:32:28,15.08838182,0.0001264,53.2181,262.5502,76.9381,283.1752,-4.0779e-05,-9.37e-06,0.0,0 STARLINK-4637,1 53742U 22107AU  24158.48088252 -.00000937  00000-0 -40779-4 0  9992,2 53742  53.2181 262.5502 0001264  76.9381 283.1752 15.08838182 97011,6917.886,95.438,540.625,538.877,0.0
53742.0,STARLINK-4637,PAYLOAD,2024-06-07 16:09:25,15.08826279,0.0001233,53.2179,257.1969,110.1496,249.9629,8.9587e-05,1.138e-05,0.0,0 STARLINK-4637,1 53742U 22107AU  24159.67321491  .00001138  00000-0  89587-4 0  9991,2 53742  53.2179 257.1969 0001233 110.1496 249.9629 15.08826279 97195,6917.922,95.438,540.64,538.934,0.0
53742.0,STARLINK-4637,PAYLOAD,2024-06-08 00:06:20,15.08839747,0.000103,53.2208,255.7129,85.8321,274.2788,0.00015369,2.159e-05,0.0,0 STARLINK-4637,1 53742U 22107AU  24160.00440584  .00002159  00000-0  15369-3 0  9995,2 53742  53.2208 255.7129 0001030  85.8321 274.2788 15.08839747 97247,6917.881,95.438,540.459,539.034,0.0
53742.0,STARLINK-4637,PAYLOAD,2024-06-08 12:49:25,15.08843203,0.0001589,53.2178,253.332,97.0344,263.0828,5.0625e-05,5.18e-06,0.0,0 STARLINK-4637,1 53742U 22107AU  24160.53432819  .00000518  00000-0  50625-4 0  9997,2 53742  53.2178 253.3320 0001589  97.0344 263.0828 15.08843203 98108,6917.871,95.437,540.835,538.636,0.0
53742.0,STARLINK-4637,PAYLOAD,2024-06-08 17:35:34,15.08854228,0.0001601,53.2156,252.4389,92.2239,267.8937,-6.0117e-06,-3.84e-06,0.0,0 STARLINK-4637,1 53742U 22107AU  24160.73304193 -.00000384  00000-0 -60117-5 0  9993,2 53742  53.2156 252.4389 0001601  92.2239 267.8937 15.08854228 98139,6917.837,95.437,540.809,538.594,0.0
53742.0,STARLINK-4637,PAYLOAD,2024-06-09 11:04:50,15.08830997,0.0001706,53.2191,249.1677,109.1244,250.9933,-2.838e-05,-7.4e-06,0.0,0 STARLINK-4637,1 53742U 22107AU  24161.46169673 -.00000740  00000-0 -28380-4 0  9997,2 53742  53.2191 249.1677 0001706 109.1244 250.9933 15.08830997 97462,6917.908,95.438,540.953,538.593,0.0
53742.0,STARLINK-4637,PAYLOAD,2024-06-10 12:31:00,15.08842575,0.0001194,53.2177,244.4137,81.698,278.4148,-1.774e-05,-5.7e-06,0.0,0 STARLINK-4637,1 53742U 22107AU  24162.52153303 -.00000570  00000-0 -17740-4 0  9997,2 53742  53.2177 244.4137 0001194  81.6980 278.4148 15.08842575 97623,6917.873,95.437,540.564,538.912,0.0
53742.0,STARLINK-4637,PAYLOAD,2024-06-11 12:21:47,15.08833151,0.0001226,53.2172,239.9529,73.8042,286.3085,7.3117e-05,8.76e-06,0.0,0 STARLINK-4637,1 53742U 22107AU  24163.51513742  .00000876  00000-0  73117-4 0  9991,2 53742  53.2172 239.9529 0001226  73.8042 286.3085 15.08833151 98551,6917.901,95.438,540.614,538.918,0.0
53742.0,STARLINK-4637,PAYLOAD,2024-06-11 21:54:06,15.08838128,0.0001245,53.2171,238.1694,80.075,280.0383,7.8744e-05,9.66e-06,0.0,0 STARLINK-4637,1 53742U 22107AU  24163.91257493  .00000966  00000-0  78744-4 0  9994,2 53742  53.2171 238.1694 0001245  80.0750 280.0383 15.08838128 97832,6917.886,95.438,540.612,538.89,0.0
53742.0,STARLINK-4637,PAYLOAD,2024-06-12 12:12:35,15.08831335,0.0001269,53.2171,235.4932,84.7013,275.4124,-3.0828e-05,-7.78e-06,0.0,0 STARLINK-4637,1 53742U 22107AU  24164.50874575 -.00000778  00000-0 -30828-4 0  9990,2 53742  53.2171 235.4932 0001269  84.7013 275.4124 15.08831335 97920,6917.907,95.438,540.65,538.894,0.0
53742.0,STARLINK-4637,PAYLOAD,2024-06-13 04:06:26,15.08837948,0.0001327,53.2177,232.5168,85.3904,274.724,2.6522e-05,1.34e-06,0.0,0 STARLINK-4637,1 53742U 22107AU  24165.17114136  .00000134  00000-0  26522-4 0  9994,2 53742  53.2177 232.5168 0001327  85.3904 274.7240 15.08837948 98025,6917.887,95.438,540.67,538.834,0.0
53742.0,STARLINK-4637,PAYLOAD,2024-06-13 12:03:21,15.0884268,0.0001239,53.2171,231.0316,84.1457,275.9676,5.6099e-05,6.05e-06,0.0,0 STARLINK-4637,1 53742U 22107AU  24165.50233690  .00000605  00000-0  56099-4 0  9993,2 53742  53.2171 231.0316 0001239  84.1457 275.9676 15.08842680 98856,6917.872,95.437,540.594,538.88,0.0
53742.0,STARLINK-4637,PAYLOAD,2024-06-14 10:18:46,15.08808861,0.0001118,53.2166,226.8681,106.2862,253.8254,0.00037302,5.649e-05,0.0,0 STARLINK-4637,1 53742U 22107AU  24166.42970948  .00005649  00000-0  37302-3 0  9997,2 53742  53.2166 226.8681 0001118 106.2862 253.8254 15.08808861 98994,6917.976,95.44,540.614,539.067,0.0
53742.0,STARLINK-4637,PAYLOAD,2024-06-15 10:09:32,15.08848088,0.0001199,53.2172,222.4057,103.9011,256.2115,-3.9656e-06,-3.51e-06,0.0,0 STARLINK-4637,1 53742U 22107AU  24167.42329254 -.00000351  00000-0 -39656-5 0  9999,2 53742  53.2172 222.4057 0001199 103.9011 256.2115 15.08848088 99145,6917.856,95.437,540.55,538.891,0.0
53742.0,STARLINK-4637,PAYLOAD,2024-06-16 10:00:20,15.08833495,0.000128,53.2172,217.9474,97.6264,262.4874,1.2051e-05,-9.6e-07,0.0,0 STARLINK-4637,1 53742U 22107AU  24168.41689835 -.00000096  00000-0  12051-4 0  9997,2 53742  53.2172 217.9474 0001280  97.6264 262.4874 15.08833495 99290,6917.9,95.438,540.651,538.88,0.0
53742.0,STARLINK-4637,PAYLOAD,2024-06-17 19:23:26,15.08837889,0.0001287,53.217,211.7024,92.6023,267.5116,-6.2041e-05,-1.275e-05,0.0,0 STARLINK-4637,1 53742U 22107AU  24169.80793998 -.00001275  00000-0 -62041-4 0  9992,2 53742  53.2170 211.7024 0001287  92.6023 267.5116 15.08837889 98729,6917.887,95.438,540.642,538.862,0.0
53742.0,STARLINK-4637,PAYLOAD,2024-06-18 09:41:54,15.08835967,0.0001288,53.2164,209.0264,92.9034,267.2106,7.3294e-05,8.79e-06,0.0,0 STARLINK-4637,1 53742U 22107AU  24170.40409830  .00000879  00000-0  73294-4 0  9998,2 53742  53.2164 209.0264 0001288  92.9034 267.2106 15.08835967 99591,6917.893,95.438,540.649,538.867,0.0
53742.0,STARLINK-4637,PAYLOAD,2024-06-18 19:14:12,15.08840948,0.0001274,53.2165,207.2421,91.1949,268.9189,8.5464e-05,1.073e-05,0.0,0 STARLINK-4637,1 53742U 22107AU  24170.80153500  .00001073  00000-0  85464-4 0  9991,2 53742  53.2165 207.2421 0001274  91.1949 268.9189 15.08840948 98872,6917.877,95.437,540.624,538.861,0.0
53742.0,STARLINK-4637,PAYLOAD,2024-06-19 09:32:42,15.08824284,0.0001248,53.2161,204.5668,92.665,267.4485,-2.9527e-05,-7.58e-06,0.0,0 STARLINK-4637,1 53742U 22107AU  24171.39771313 -.00000758  00000-0 -29527-4 0  9993,2 53742  53.2161 204.5668 0001248  92.6650 267.4485 15.08824284 98965,6917.928,95.439,540.657,538.93,0.0
53742.0,STARLINK-4637,PAYLOAD,2024-06-20 10:58:52,15.0883584,0.000126,53.2163,199.8084,88.2448,271.8688,8.8435e-06,-1.47e-06,0.0,0 STARLINK-4637,1 53742U 22107AU  24172.45755093 -.00000147  00000-0  88435-5 0  9993,2 53742  53.2163 199.8084 0001260  88.2448 271.8688 15.08835840 99904,6917.893,95.438,540.63,538.886,0.0
53742.0,STARLINK-4637,PAYLOAD,2024-06-20 18:55:47,15.08839455,0.0001301,53.2167,198.3215,87.1762,272.9379,-7.6957e-08,-2.89e-06,0.0,0 STARLINK-4637,1 53742U 22107AU  24172.78874970 -.00000289  00000-0 -76957-7 0  9991,2 53742  53.2167 198.3215 0001301  87.1762 272.9379 15.08839455 99175,6917.882,95.438,540.647,538.847,0.0
53742.0,STARLINK-4637,PAYLOAD,2024-06-21 09:14:16,15.08838016,0.0001266,53.2164,195.6447,85.7382,274.3754,0.00011156,1.488e-05,0.0,0 STARLINK-4637,1 53742U 22107AU  24173.38490836  .00001488  00000-0  11156-3 0  9999,2 53742  53.2164 195.6447 0001266  85.7382 274.3754 15.08838016100045,6917.886,95.438,540.627,538.876,0.0
53742.0,STARLINK-4637,PAYLOAD,2024-06-22 10:40:26,15.0884178,0.0001241,53.2161,190.8869,85.7527,274.3607,4.8294e-05,4.81e-06,0.0,0 STARLINK-4637,1 53742U 22107AU  24174.44474846  .00000481  00000-0  48294-4 0  9996,2 53742  53.2161 190.8869 0001241  85.7527 274.3607 15.08841780 99429,6917.875,95.437,540.598,538.881,0.0
53742.0,STARLINK-4637,PAYLOAD,2024-06-23 07:20:26,15.08846571,0.000133,53.2164,187.022,79.5581,280.5561,3.9717e-05,3.44e-06,0.0,0 STARLINK-4637,1 53742U 22107AU  24175.30586323  .00000344  00000-0  39717-4 0  9994,2 53742  53.2164 187.0220 0001330  79.5581 280.5561 15.08846571100335,6917.86,95.437,540.645,538.805,0.0
53742.0,STARLINK-4637,PAYLOAD,2024-06-24 05:35:50,15.08843537,0.0001288,53.2166,182.8596,81.553,278.5608,7.6426e-06,-1.66e-06,0.0,0 STARLINK-4637,1 53742U 22107AU  24176.23322251 -.00000166  00000-0  76426-5 0  9997,2 53742  53.2166 182.8596 0001288  81.5530 278.5608 15.08843537 99699,6917.87,95.437,540.626,538.844,0.0
53742.0,STARLINK-4637,PAYLOAD,2024-06-24 10:21:59,15.08842653,0.0001281,53.2164,181.9672,80.6952,279.4185,1.3931e-06,-2.66e-06,0.0,0 STARLINK-4637,1 53742U 22107AU  24176.43194267 -.00000266  00000-0  13931-5 0  9996,2 53742  53.2164 181.9672 0001281  80.6952 279.4185 15.08842653100504,6917.872,95.437,540.623,538.851,0.0
53742.0,STARLINK-4637,PAYLOAD,2024-06-25 05:26:37,15.08840517,0.0001313,53.2162,178.3978,90.941,269.1733,-2.8495e-05,-7.41e-06,0.0,0 STARLINK-4637,1 53742U 22107AU  24177.22682362 -.00000741  00000-0 -28495-4 0  9991,2 53742  53.2162 178.3978 0001313  90.9410 269.1733 15.08840517100625,6917.879,95.438,540.652,538.835,0.0
53742.0,STARLINK-4637,PAYLOAD,2024-06-26 05:17:24,15.08835363,0.0001332,53.2158,173.9366,100.0568,260.0574,1.42e-05,-6.2e-07,0.0,0 STARLINK-4637,1 53742U 22107AU  24178.22042535 -.00000062  00000-0  14200-4 0  9998,2 53742  53.2158 173.9366 0001332 100.0568 260.0574 15.08835363 99993,6917.895,95.438,540.681,538.838,0.0
53742.0,STARLINK-4637,PAYLOAD,2024-06-26 06:52:47,15.0883558,0.000132,53.2158,173.6392,99.2799,260.8343,1.5297e-05,-4.4e-07,0.0,0 STARLINK-4637,1 53742U 22107AU  24178.28666537 -.00000044  00000-0  15297-4 0  9995,2 53742  53.2158 173.6392 0001320  99.2799 260.8343 15.08835580100784,6917.894,95.438,540.672,538.846,0.0
